satname,norad_id,inclination_deg,eccentricity,mean_motion_rev_per_day,perigee_km,apogee_km,l1,l2
STARLINK-1319,45379,53.0548,0.0002111,15.37479121,452.12454808842085,455.0088933993193,1 45379U 20019V   25316.74038161  .00048490  00000+0  13021-2 0  9990,2 45379  53.0548 329.1277 0002111  64.8747 295.2475 15.37479121312142
STARLINK-1266,45383,53.0563,0.0001998,15.06408035,545.8032522083913,548.5706116515903,1 45383U 20019Z   25316.71322616  .00002458  00000+0  18380-3 0  9991,2 45383  53.0563 311.7489 0001998  87.3296 272.7921 15.06408035312370
STARLINK-1267,45384,53.0546,0.0001542,15.06439745,546.0218779512797,548.157617880338,1 45384U 20019AA  25316.69855551  .00008337  00000+0  57730-3 0  9992,2 45384  53.0546 312.4692 0001542  95.1775 264.9390 15.06439745312364
STARLINK-1272,45386,53.0529,0.0005361,15.35750486,455.0270287636513,462.3574770886389,1 45386U 20019AC  25316.91668980  .00081456  00000+0  22941-2 0  9995,2 45386  53.0529 306.2355 0005361  51.3928 210.8100 15.35750486  5561
STARLINK-1274,45387,53.036,0.0003455,15.3077882,471.12012561225856,475.8545980462832,1 45387U 20019AD  25316.91668980  .00065221  00000+0  21556-2 0  9999,2 45387  53.0360 294.0279 0003455 354.0844 252.3659 15.30778820  5800
STARLINK-1280,45388,53.0545,0.0005338,15.41518629,437.98624874735106,445.26702840789676,1 45388U 20019AE  25316.91668980  .00104067  00000+0  24187-2 0  9995,2 45388  53.0545 325.2308 0005338  31.8588  71.5311 15.41518629  5709
STARLINK-1283,45389,53.0541,0.0006869,15.32170175,464.63525532528,474.04231756069566,1 45389U 20019AF  25316.67241560  .00092998  00000+0  29263-2 0  9999,2 45389  53.0541 306.2832 0006869  47.6014 312.5566 15.32170175312459
STARLINK-1284,45390,53.0556,0.0001427,15.06408774,546.1964236206022,548.1729104243714,1 45390U 20019AG  25316.71691178  .00003784  00000+0  27271-3 0  9993,2 45390  53.0556 311.7336 0001427  86.1059 274.0093 15.06408774312377
STARLINK-1292,45394,53.0401,0.0003757,16.11497863,240.2499797509845,245.2249048069134,1 45394U 20019AL  25316.87696390  .01383420  13292-2  13202-2 0  9992,2 45394  53.0401 252.5795 0003757 103.5578 256.5875 16.11497863312950
STARLINK-1297,45395,53.0552,0.0001551,15.06391899,546.1622610355489,548.3105118600242,1 45395U 20019AM  25316.28936351  .00016220  00000+0  11055-2 0  9996,2 45395  53.0552 313.6499 0001551  76.2728 283.8433 15.06391899311497
STARLINK-1307,45397,53.056,0.0001944,15.06425471,545.787221507675,548.4797666757786,1 45397U 20019AP  25316.28197406  .00009045  00000+0  62492-3 0  9997,2 45397  53.0560 313.6820 0001944  87.7735 272.3476 15.06425471312133
STARLINK-1255,45399,53.0489,0.0005095,15.32254837,465.5978937025129,472.57521450414424,1 45399U 20019AR  25316.91668980  .00082090  00000+0  25821-2 0  9994,2 45399  53.0489 296.2206 0005095  58.7171 163.8442 15.32254837  5874
STARLINK-1260,45404,53.054,0.000143,15.06452211,546.0612414030102,548.0418453264128,1 45404U 20019AW  25316.28289312  .00020287  00000+0  13750-2 0  9997,2 45404  53.0540 303.6756 0001430  95.0225 265.0927 15.06452211312168
STARLINK-1263,45405,53.055,0.0001424,15.06418551,546.1685408401627,548.1408639170013,1 45405U 20019AX  25316.26814531  .00006808  00000+0  47529-3 0  9998,2 45405  53.0550 303.7456 0001424  95.0213 265.0938 15.06418551312169
STARLINK-1265,45406,53.0558,0.0001468,15.06417526,546.141210510189,548.1744770763262,1 45406U 20019AY  25316.67359404  .00004342  00000+0  31010-3 0  9996,2 45406  53.0558 301.9204 0001468  83.8257 276.2899 15.06417526312228
STARLINK-1278,45408,53.0534,0.0005055,15.34951074,457.608605169572,464.52303922281226,1 45408U 20019BA  25316.91668980  .00094385  00000+0  27207-2 0  9995,2 45408  53.0534 326.2388 0005055  30.4883 260.7904 15.34951074  5851
STARLINK-1296,45412,53.0537,0.0001297,15.06428177,546.2269943301408,548.0234073450383,1 45412U 20019BE  25316.67728936  .00004174  00000+0  29873-3 0  9990,2 45412  53.0537 301.9069 0001297  98.4774 261.6362 15.06428177312224
STARLINK-1298,45413,53.0474,0.0008802,15.54679282,397.1162456074717,409.0539089523154,1 45413U 20019BF  25316.60229799  .00064092  00000+0  94820-3 0  9996,2 45413  53.0474 274.2935 0008802   5.6912 354.4196 15.54679282312709
STARLINK-1309,45414,53.0555,0.0001366,15.06402479,546.25795859558,548.1499617458985,1 45414U 20019BG  25316.69203492  .00003254  00000+0  23719-3 0  9990,2 45414  53.0555 301.8433 0001366  82.9430 277.1714 15.06402479312213
STARLINK-1316,45415,53.0551,0.0001333,15.06420391,546.2259225328535,548.0722037972919,1 45415U 20019BH  25316.25339483  .00003467  00000+0  25142-3 0  9991,2 45415  53.0551 303.8086 0001333  80.6546 279.4594 15.06420391312183
STARLINK-1318,45416,53.0496,0.0005726,15.61846478,378.4524597537102,386.1945391176632,1 45416U 20019BJ  25316.27637398  .00120675  00000+0  13502-2 0  9997,2 45416  53.0496 266.7727 0005726  76.7526 283.4126 15.61846478312696
STARLINK-1286,45417,53.0545,0.0003858,15.37663162,450.3861301116476,455.65705208053805,1 45417U 20019BK  25316.91668980  .00198370  00000+0  51593-2 0  9999,2 45417  53.0545 326.5720 0003858  53.6032 123.5926 15.37663162  5859
STARLINK-1308,45419,53.0548,0.0001232,15.06426934,546.2758175649496,547.9822031098965,1 45419U 20019BM  25316.75191601  .00012019  00000+0  82377-3 0  9994,2 45419  53.0548 331.5707 0001232  89.0681 271.0450 15.06426934311842
STARLINK-1329,45531,53.0534,0.0001319,15.06417417,546.2447314221445,548.0716242900617,1 45531U 20025A   25316.85329015  .00003801  00000+0  27383-3 0  9994,2 45531  53.0534 271.1188 0001319  94.3469 265.7670 15.06417417307488
STARLINK-1338,45532,53.0531,0.0001501,15.06419686,546.1117380782334,548.19070960303,1 45532U 20025B   25316.86434760  .00008359  00000+0  57907-3 0  9998,2 45532  53.0531 271.0643 0001501  96.2444 263.8716 15.06419686307488
STARLINK-1350,45535,53.0732,0.0002217,15.32668771,466.33590439549516,469.3714166543723,1 45535U 20025E   25316.15911041  .00018057  00000+0  57463-3 0  9998,2 45535  53.0732 223.7000 0002217  82.3559 277.7693 15.32668771308112
STARLINK-1362,45538,53.0551,0.0001591,15.06445666,545.9698010724451,548.1734024495254,1 45538U 20025H   25316.29939679  .00000448  00000+0  48924-4 0  9991,2 45538  53.0551 273.3197 0001591 100.5660 259.5509 15.06445666307404
STARLINK-1368,45540,53.0541,0.0001834,15.0641626,545.8916240424514,548.4318236143517,1 45540U 20025K   25316.83485428  .00003393  00000+0  24644-3 0  9996,2 45540  53.0541 271.2013 0001834  86.8892 273.2307 15.06416260307477
STARLINK-1371,45542,53.0547,0.0001462,15.06407822,546.1751022842964,548.2000671928745,1 45542U 20025M   25316.87171634  .00002112  00000+0  16060-3 0  9994,2 45542  53.0547 271.0323 0001462  92.0186 268.0970 15.06407822307482
STARLINK-1372,45543,53.0542,0.0001031,15.06401568,546.492749307422,547.920755189135,1 45543U 20025N   25316.57684697 -.00015173  00000+0 -10018-2 0  9999,2 45543  53.0542 272.3579 0001031  89.6004 270.5103 15.06401568306530
STARLINK-1373,45544,53.0549,0.0001222,15.0640327,546.3552595082892,548.0478122464583,1 45544U 20025P   25316.86067597  .00004906  00000+0  34798-3 0  9998,2 45544  53.0549 271.0837 0001222  90.3865 269.7264 15.06403270307482
STARLINK-1294,45551,53.0462,0.0007324,15.61988092,376.963817030226,386.8659410226228,1 45551U 20025W   25316.66177911  .00122522  00000+0  13624-2 0  9995,2 45551  53.0462 200.3968 0007324  96.6968 263.4879 15.61988092308469
STARLINK-1325,45554,53.0535,0.000308,15.66191638,367.73543020972284,371.8921679019404,1 45554U 20025Z   25316.91668980  .00714594  00000+0  62411-2 0  9991,2 45554  53.0535 191.9030 0003080 201.9509  68.9918 15.66191638  5996
STARLINK-1327,45555,53.0537,0.0001744,15.06432396,545.9045071707142,548.3200341163138,1 45555U 20025AA  25316.83302211  .00009123  00000+0  62999-3 0  9992,2 45555  53.0537 251.2077 0001744  85.7811 274.3378 15.06432396307754
STARLINK-1356,45564,53.0542,0.0001209,15.06435973,546.2640467568735,547.938569379764,1 45564U 20025AK  25316.83670113  .00011756  00000+0  80603-3 0  9998,2 45564  53.0542 251.1897 0001209  77.6406 282.4719 15.06435973307758
STARLINK-1357,45565,53.061,0.0009167,15.34598022,455.8442816117058,468.38519915252346,1 45565U 20025AL  25316.77579491  .00063581  00000+0  18630-2 0  9992,2 45565  53.0610 234.1860 0009167  59.1016 301.0886 15.34598022307994
STARLINK-1361,45567,53.0532,0.0001505,15.06420593,546.1061886188681,548.1906995375357,1 45567U 20025AN  25316.05896959  .00010039  00000+0  69152-3 0  9992,2 45567  53.0532 254.6793 0001505  94.0774 266.0387 15.06420593307642
STARLINK-1363,45568,53.0533,0.0005609,15.43957429,430.6220081435458,438.2643605943704,1 45568U 20025AP  25316.91668980  .00041819  00000+0  90825-3 0  9990,2 45568  53.0533 245.3076 0005609 107.4256 217.9348 15.43957429  5874
STARLINK-1366,45569,53.0513,0.0005098,15.42166441,436.240928234547,443.1924118365141,1 45569U 20025AQ  25316.83018905  .00043153  00000+0  99489-3 0  9996,2 45569  53.0513 245.2881 0005098 100.5832 259.5747 15.42166441307833
STARLINK-1376,45570,53.0548,0.0001513,15.06392349,546.1871984658828,548.2828160352765,1 45570U 20025AR  25316.85145697 -.00000454  00000+0 -11611-4 0  9990,2 45570  53.0548 251.1266 0001513  93.5183 266.5979 15.06392349307758
STARLINK-1320,45572,53.0569,0.0009721,15.44583554,425.98127183877295,439.2227105854872,1 45572U 20025AT  25316.63302368  .00081417  00000+0  17121-2 0  9994,2 45572  53.0569 192.2701 0009721  68.8845 291.3199 15.44583554308585
STARLINK-1321,45573,53.0538,0.0001708,15.06418865,545.9709003753278,548.3365796921235,1 45573U 20025AU  25316.77126517 -.00004304  00000+0 -27008-3 0  9998,2 45573  53.0538 241.4866 0001708  77.6503 282.4677 15.06418865307588
STARLINK-1328,45576,53.0488,0.001104,15.7331262,342.0098663489025,356.864349979729,1 45576U 20025AX  25316.91668980  .00192433  00000+0  13336-2 0  9999,2 45576  53.0488 211.4502 0011040  87.4909 198.2094 15.73312620  6026
